GLOBALSTAR M001         
1 25162U 98008A   24147.91900484 -.00000095  00000+0  96580-5 0  9991
2 25162  52.0059  17.4647 0001948 130.4935 242.1334 12.38184687195861
GLOBALSTAR M004         
1 25163U 98008B   24148.23898565 -.00000094  00000+0  57311-4 0  9991
2 25163  51.9971 151.5568 0002917 152.1003 291.2222 12.63360753213005
GLOBALSTAR M002         
1 25164U 98008C   24148.19668716 -.00000091  00000+0 -28574-3 0  9996
2 25164  51.9985 128.0029 0001048 158.6574 201.4289 11.61503199139283
GLOBALSTAR M003         
1 25165U 98008D   24147.93149938  .00000035  00000+0  13241-2 0  9998
2 25165  51.9840 158.3028 0008007 235.9488 201.0823 12.12005353186383
GLOBALSTAR M014         
1 25306U 98023A   24147.93130347 -.00000056  00000+0  39843-3 0  9997
2 25306  51.9858  60.0124 0001392  24.6380  55.6887 11.65468058146133
GLOBALSTAR M006         
1 25307U 98023B   24147.90441406 -.00000063  00000+0  25544-3 0  9997
2 25307  51.9930  98.1164 0003512 124.6438 268.7489 11.58164095172187
GLOBALSTAR M015         
1 25308U 98023C   24147.85773927 -.00000068  00000+0  12032-3 0  9991
2 25308  51.9786 179.0004 0012472 110.5837  61.6188 11.48852590149678
GLOBALSTAR M008         
1 25309U 98023D   24148.17605424 -.00000056  00000+0  31765-3 0  9995
2 25309  51.9964 237.1748 0002783  91.6020 275.2950 12.36043896190423
